NORAD_CAT_ID,OBJECT_NAME,OBJECT_TYPE,EPOCH,MEAN_MOTION,ECCENTRICITY,INCLINATION,RA_OF_ASC_NODE,ARG_OF_PERICENTER,MEAN_ANOMALY,BSTAR,MEAN_MOTION_DOT,MEAN_MOTION_DDOT,TLE_LINE0,TLE_LINE1,TLE_LINE2,SEMIMAJOR_AXIS,PERIOD,APOGEE,PERIGEE,DECAYED
53424.0,STARLINK-4532,PAYLOAD,2023-01-27 10:45:55,15.08837391,0.0001312,53.2164,179.3898,105.3688,254.745,1.3095e-05,-7.9e-07,0.0,0 STARLINK-4532,1 53424U 22097AN  23027.44855624 -.00000079  00000-0  13095-4 0  9999,2 53424  53.2164 179.3898 0001312 105.3688 254.7450 15.08837391 26486,6917.888000000001,95.438,540.661,538.846,0.0
53424.0,STARLINK-4532,PAYLOAD,2023-01-27 13:56:41,15.08837197,0.0001367,53.2161,178.7954,110.1923,249.9216,2.5914e-05,1.25e-06,0.0,0 STARLINK-4532,1 53424U 22097AN  23027.58103596  .00000125  00000-0  25914-4 0  9992,2 53424  53.2161 178.7954 0001367 110.1923 249.9216 15.08837197 26980,6917.889,95.438,540.7,538.808,0.0
53424.0,STARLINK-4532,PAYLOAD,2023-01-27 18:42:51,15.08835935,0.0001217999999999,53.2172,177.9052,93.5461,266.5671,1.7259000000000002e-05,-1.3e-07,0.0,0 STARLINK-4532,1 53424U 22097AN  23027.77975791 -.00000013  00000-0  17259-4 0  9997,2 53424  53.2172 177.9052 0001218  93.5461 266.5671 15.08835935 27011,6917.893,95.438,540.6,538.915,0.0
53424.0,STARLINK-4532,PAYLOAD,2023-01-28 10:36:42,15.08821194,0.0001406,53.2161,174.9336,110.6339,249.4804,0.0001749,2.495e-05,0.0,0 STARLINK-4532,1 53424U 22097AN  23028.44216156  .00002495  00000-0  17490-3 0  9996,2 53424  53.2161 174.9336 0001406 110.6339 249.4804 15.08821194 26632,6917.938,95.439,540.776,538.83,0.0
53424.0,STARLINK-4532,PAYLOAD,2023-01-28 13:47:28,15.08842509,0.0001096,53.2155,174.3395,94.0872,266.0246,-2.1161e-05,-6.25e-06,0.0,0 STARLINK-4532,1 53424U 22097AN  23028.57463753 -.00000625  00000-0 -21161-4 0  9993,2 53424  53.2155 174.3395 0001096  94.0872 266.0246 15.08842509 27130,6917.873,95.437,540.496,538.98,0.0
53424.0,STARLINK-4532,PAYLOAD,2023-01-28 18:33:37,15.08846586,0.0001156,53.2161,173.4472,91.119,268.9934,2.9931e-05,1.89e-06,0.0,0 STARLINK-4532,1 53424U 22097AN  23028.77335327  .00000189  00000-0  29931-4 0  9996,2 53424  53.2161 173.4472 0001156  91.1190 268.9934 15.08846586 26684,6917.86,95.437,540.525,538.926,0.0
53424.0,STARLINK-4532,PAYLOAD,2023-01-28 20:09:01,15.08832291,0.0001387,53.2161,173.1495,107.8879,252.2264,0.00024767,3.655e-05,0.0,0 STARLINK-4532,1 53424U 22097AN  23028.83959575  .00003655  00000-0  24767-3 0  9992,2 53424  53.2161 173.1495 0001387 107.8879 252.2264 15.08832291 27176,6917.904,95.438,540.728,538.809,0.0
53424.0,STARLINK-4532,PAYLOAD,2023-01-29 02:30:34,15.08833515,0.0001262,53.2166,171.9576,102.8518,257.2615,1.2725e-05,-8.5e-07,0.0,0 STARLINK-4532,1 53424U 22097AN  23029.10456139 -.00000085  00000-0  12725-4 0  9998,2 53424  53.2166 171.9576 0001262 102.8518 257.2615 15.08833515 26730,6917.9,95.438,540.638,538.892,0.0
53424.0,STARLINK-4532,PAYLOAD,2023-01-29 18:24:25,15.08835384,0.0001186,53.2163,168.9867,87.8724,272.2404,6.0235e-05,6.71e-06,0.0,0 STARLINK-4532,1 53424U 22097AN  23029.76696284  .00000671  00000-0  60235-4 0  9996,2 53424  53.2163 168.9867 0001186  87.8724 272.2404 15.08835384 27316,6917.894,95.438,540.58,538.939,0.0
53424.0,STARLINK-4532,PAYLOAD,2023-01-30 08:42:53,15.08838263,0.0001214,53.2169,166.3113,86.4804,273.6327,6.3329e-05,7.2e-06,0.0,0 STARLINK-4532,1 53424U 22097AN  23030.36312248  .00000720  00000-0  63329-4 0  9991,2 53424  53.2169 166.3113 0001214  86.4804 273.6327 15.08838263 26928,6917.886,95.438,540.591,538.911,0.0
53424.0,STARLINK-4532,PAYLOAD,2023-01-31 08:33:40,15.08837091,0.0001221,53.2154,161.8499,91.8805,268.2327,9.6632e-05,1.25e-05,0.0,0 STARLINK-4532,1 53424U 22097AN  23031.35672165  .00001250  00000-0  96632-4 0  9990,2 53424  53.2154 161.8499 0001221  91.8805 268.2327 15.08837091 27556,6917.889,95.438,540.599,538.91,0.0
53424.0,STARLINK-4532,PAYLOAD,2023-02-01 02:02:54,15.08844047,0.0001178,53.2154,158.5791,89.5564,270.5563,5.9116e-05,6.53e-06,0.0,0 STARLINK-4532,1 53424U 22097AN  23032.08535768  .00000653  00000-0  59116-4 0  9990,2 53424  53.2154 158.5791 0001178  89.5564 270.5563 15.08844047 27187,6917.868,95.437,540.548,538.918,0.0
53424.0,STARLINK-4532,PAYLOAD,2023-02-01 13:10:36,15.08845335,0.0001336,53.2149,156.4973,90.7241,269.3904,4.861e-05,4.86e-06,0.0,0 STARLINK-4532,1 53424U 22097AN  23032.54903622  .00000486  00000-0  48610-4 0  9990,2 53424  53.2149 156.4973 0001336  90.7241 269.3904 15.08845335 27739,6917.864,95.437,540.653,538.805,0.0
53424.0,STARLINK-4532,PAYLOAD,2023-02-02 13:01:24,15.08835504,0.0001194,53.2169,152.0396,77.5474,282.5652,3.664e-05,2.95e-06,0.0,0 STARLINK-4532,1 53424U 22097AN  23033.54264363  .00000295  00000-0  36640-4 0  9991,2 53424  53.2169 152.0396 0001194  77.5474 282.5652 15.08835504 27885,6917.894,95.438,540.585,538.933,0.0
53424.0,STARLINK-4532,PAYLOAD,2023-02-03 08:06:02,15.08832292,0.0001187,53.2169,148.47,99.8173,260.2953,-6.2935e-05,-1.289e-05,0.0,0 STARLINK-4532,1 53424U 22097AN  23034.33752949 -.00001289  00000-0 -62935-4 0  9993,2 53424  53.2169 148.4700 0001187  99.8173 260.2953 15.08832292 28001,6917.904,95.438,540.59,538.948,0.0
53424.0,STARLINK-4532,PAYLOAD,2023-02-04 11:07:35,15.08839366,0.0001246,53.218,143.4156,110.9008,249.2117,7.4721e-05,9.02e-06,0.0,0 STARLINK-4532,1 53424U 22097AN  23035.46360369  .00000902  00000-0  74721-4 0  9994,2 53424  53.2180 143.4156 0001246 110.9008 249.2117 15.08839366 27694,6917.882,95.438,540.609,538.885,0.0
53424.0,STARLINK-4532,PAYLOAD,2023-02-04 12:42:58,15.08841315,0.000135,53.2179,143.118,112.9508,247.1627,8.7532e-05,1.105e-05,0.0,0 STARLINK-4532,1 53424U 22097AN  23035.52984222  .00001105  00000-0  87532-4 0  9991,2 53424  53.2179 143.1180 0001350 112.9508 247.1627 15.08841315 28184,6917.876,95.437,540.675,538.807,0.0
53424.0,STARLINK-4532,PAYLOAD,2023-02-05 10:58:23,15.08827466,0.0001276,53.2185,138.9556,104.8943,255.219,-8.8925e-07,-3.02e-06,0.0,0 STARLINK-4532,1 53424U 22097AN  23036.45721668 -.00000302  00000-0 -88925-6 0  9996,2 53424  53.2185 138.9556 0001276 104.8943 255.2190 15.08827466 27848,6917.919,95.438,540.666,538.901,0.0
53424.0,STARLINK-4532,PAYLOAD,2023-02-05 14:09:09,15.08832698,9.71e-05,53.218,138.3602,87.7921,272.3182,1.5214e-05,-4.6e-07,0.0,0 STARLINK-4532,1 53424U 22097AN  23036.58969427 -.00000046  00000-0  15214-4 0  9990,2 53424  53.2180 138.3602 0000971  87.7921 272.3182 15.08832698 28345,6917.903,95.438,540.439,539.096,0.0
53424.0,STARLINK-4532,PAYLOAD,2023-02-05 17:19:55,15.0883393,0.0001628,53.2168,137.7638,106.2854,253.8318,8.3242e-05,1.037e-05,0.0,0 STARLINK-4532,1 53424U 22097AN  23036.72217267  .00001037  00000-0  83242-4 0  9990,2 53424  53.2168 137.7638 0001628 106.2854 253.8318 15.08833930 27888,6917.899,95.438,540.89,538.638,0.0
53424.0,STARLINK-4532,PAYLOAD,2023-02-06 10:49:09,15.08849735,0.0001015,53.2167,134.4933,98.1081,262.0027,7.1441e-05,8.5e-06,0.0,0 STARLINK-4532,1 53424U 22097AN  23037.45080377  .00000850  00000-0  71441-4 0  9991,2 53424  53.2167 134.4933 0001015  98.1081 262.0027 15.08849735 27991,6917.851,95.437,540.418,539.013,0.0
53424.0,STARLINK-4532,PAYLOAD,2023-02-06 13:59:55,15.08857586,0.0001149,53.2168,133.899,85.8305,274.2818,0.0001433,1.995e-05,0.0,0 STARLINK-4532,1 53424U 22097AN  23037.58327652  .00001995  00000-0  14330-3 0  9999,2 53424  53.2168 133.8990 0001149  85.8305 274.2818 15.08857586 28490,6917.827,95.436,540.486,538.897,0.0
53424.0,STARLINK-4532,PAYLOAD,2023-02-06 15:35:18,15.08858835,0.0001148,53.2166,133.6014,85.3381,274.7742,0.00015086,2.115e-05,0.0,0 STARLINK-4532,1 53424U 22097AN  23037.64951503  .00002115  00000-0  15086-3 0  9998,2 53424  53.2166 133.6014 0001148  85.3381 274.7742 15.08858835 28029,6917.823,95.436,540.482,538.894,0.0
53424.0,STARLINK-4532,PAYLOAD,2023-02-06 23:32:14,15.08848525,0.0001337,53.2179,132.1141,80.7265,279.3878,7.6694e-05,9.33e-06,0.0,0 STARLINK-4532,1 53424U 22097AN  23037.98072260  .00000933  00000-0  76694-4 0  9998,2 53424  53.2179 132.1141 0001337  80.7265 279.3878 15.08848525 28079,6917.854,95.437,540.644,538.794,0.0
53424.0,STARLINK-4532,PAYLOAD,2023-02-07 12:15:19,15.08850044,0.000144,53.2159,129.7348,85.915,274.2007,0.00019789,2.864e-05,0.0,0 STARLINK-4532,1 53424U 22097AN  23038.51063932  .00002864  00000-0  19789-3 0  9990,2 53424  53.2159 129.7348 0001440  85.9150 274.2007 15.08850044 28632,6917.85,95.437,540.711,538.719,0.0
53424.0,STARLINK-4532,PAYLOAD,2023-02-08 12:06:06,15.08843606,0.0001535,53.2162,125.2756,96.5756,263.5411,-2.3228e-05,-6.58e-06,0.0,0 STARLINK-4532,1 53424U 22097AN  23039.50424363 -.00000658  00000-0 -23228-4 0  9994,2 53424  53.2162 125.2756 0001535  96.5756 263.5411 15.08843606 28305,6917.869,95.437,540.796,538.672,0.0
53424.0,STARLINK-4532,PAYLOAD,2023-02-08 16:52:15,15.08857644,0.0001791,53.2155,124.3792,124.2275,235.8887,7.0841e-05,8.4e-06,0.0,0 STARLINK-4532,1 53424U 22097AN  23039.70295358  .00000840  00000-0  70841-4 0  9990,2 53424  53.2155 124.3792 0001791 124.2275 235.8887 15.08857644 28335,6917.826,95.436,540.93,538.452,0.0
53424.0,STARLINK-4532,PAYLOAD,2023-02-09 10:21:31,15.08835665,0.0001366,53.2144,121.1133,89.2871,270.8278,-2.4863e-05,-6.84e-06,0.0,0 STARLINK-4532,1 53424U 22097AN  23040.43160955 -.00000684  00000-0 -24863-4 0  9997,2 53424  53.2144 121.1133 0001366  89.2871 270.8278 15.08835665 28924,6917.894,95.438,540.704,538.814,0.0
53424.0,STARLINK-4532,PAYLOAD,2023-02-09 15:07:39,15.08855867,0.0001244,53.2148,120.2209,94.4739,265.6396,0.00023174,3.404e-05,0.0,0 STARLINK-4532,1 53424U 22097AN  23040.63031764  .00003404  00000-0  23174-3 0  9998,2 53424  53.2148 120.2209 0001244  94.4739 265.6396 15.08855867 28477,6917.832,95.437,540.557,538.836,0.0
53424.0,STARLINK-4532,PAYLOAD,2023-02-10 11:47:41,15.0883676,0.0001587,53.2153,116.3588,89.1864,270.931,0.00016885,2.4e-05,0.0,0 STARLINK-4532,1 53424U 22097AN  23041.49145502  .00002400  00000-0  16885-3 0  9995,2 53424  53.2153 116.3588 0001587  89.1864 270.9310 15.08836760 28600,6917.89,95.438,540.853,538.657,0.0
